NORAD_CAT_ID,OBJECT_NAME,OBJECT_TYPE,EPOCH,MEAN_MOTION,ECCENTRICITY,INCLINATION,RA_OF_ASC_NODE,ARG_OF_PERICENTER,MEAN_ANOMALY,BSTAR,MEAN_MOTION_DOT,MEAN_MOTION_DDOT,TLE_LINE0,TLE_LINE1,TLE_LINE2,SEMIMAJOR_AXIS,PERIOD,APOGEE,PERIGEE,DECAYED
51741.0,STARLINK-3520,PAYLOAD,2023-05-18 12:24:37,15.08838228,0.0001103,53.2167,245.7955,97.4125,262.6992,-1.2043e-05,-4.79e-06,0.0,0 STARLINK-3520,1 51741U 22016AD  23138.51709857 -.00000479  00000-0 -12043-4 0  9994,2 51741  53.2167 245.7955 0001103  97.4125 262.6992 15.08838228 69752,6917.886,95.438,540.514,538.988,0.0
51741.0,STARLINK-3520,PAYLOAD,2023-05-18 17:10:46,15.08840543,0.0001052,53.2168,244.9041,90.237,269.8742,1.4239e-05,-6.1e-07,0.0,0 STARLINK-3520,1 51741U 22016AD  23138.71581655 -.00000061  00000-0  14239-4 0  9995,2 51741  53.2168 244.9041 0001052  90.2370 269.8742 15.08840543 68671,6917.879,95.438,540.471,539.016,0.0
51741.0,STARLINK-3520,PAYLOAD,2023-05-19 12:15:24,15.08840209,0.0001184,53.2164,241.3343,92.1449,267.9678,4.9843e-05,5.06e-06,0.0,0 STARLINK-3520,1 51741U 22016AD  23139.51069717  .00000506  00000-0  49843-4 0  9996,2 51741  53.2164 241.3343 0001184  92.1449 267.9678 15.08840209 68796,6917.88,95.438,540.564,538.926,0.0
51741.0,STARLINK-3520,PAYLOAD,2023-05-19 23:23:05,15.08842573,0.0001087,53.2164,239.253,89.102,271.0097,0.00010598,1.399e-05,0.0,0 STARLINK-3520,1 51741U 22016AD  23139.97437345  .00001399  00000-0  10598-3 0  9997,2 51741  53.2164 239.2530 0001087  89.1020 271.0097 15.08842573 69971,6917.873,95.437,540.489,538.986,0.0
51741.0,STARLINK-3520,PAYLOAD,2023-05-20 12:06:10,15.0884348,0.0001184,53.2159,236.8753,96.6821,263.4306,0.00012273,1.666e-05,0.0,0 STARLINK-3520,1 51741U 22016AD  23140.50429365  .00001666  00000-0  12273-3 0  9990,2 51741  53.2159 236.8753 0001184  96.6821 263.4306 15.08843480 68947,6917.87,95.437,540.554,538.916,0.0
51741.0,STARLINK-3520,PAYLOAD,2023-05-21 08:46:12,15.08835038,0.0001161,53.2161,233.0096,91.5889,268.5236,2.0959e-05,4.6e-07,0.0,0 STARLINK-3520,1 51741U 22016AD  23141.36542146  .00000046  00000-0  20959-4 0  9990,2 51741  53.2161 233.0096 0001161  91.5889 268.5236 15.08835038 70189,6917.896,95.438,540.564,538.957,0.0
51741.0,STARLINK-3520,PAYLOAD,2023-05-21 11:56:58,15.08838356,0.0001097,53.216,232.4144,94.4453,265.6665,-7.3455e-06,-4.05e-06,0.0,0 STARLINK-3520,1 51741U 22016AD  23141.49789935 -.00000405  00000-0 -73455-5 0  9994,2 51741  53.2160 232.4144 0001097  94.4453 265.6665 15.08838356 69090,6917.885,95.438,540.509,538.992,0.0
51741.0,STARLINK-3520,PAYLOAD,2023-05-22 11:47:46,15.08832153,0.0001303,53.2166,227.9523,88.0026,272.1115,-1.2978e-05,-4.94e-06,0.0,0 STARLINK-3520,1 51741U 22016AD  23142.49150472 -.00000494  00000-0 -12978-4 0  9993,2 51741  53.2166 227.9523 0001303  88.0026 272.1115 15.08832153 69240,6917.904,95.438,540.671,538.868,0.0
51741.0,STARLINK-3520,PAYLOAD,2023-05-22 13:23:08,15.08839126,0.0001133,53.2156,227.6583,89.1666,270.9456,-3.3794e-05,-8.26e-06,0.0,0 STARLINK-3520,1 51741U 22016AD  23142.55774089 -.00000826  00000-0 -33794-4 0  9994,2 51741  53.2156 227.6583 0001133  89.1666 270.9456 15.08839126 70361,6917.883,95.438,540.532,538.964,0.0
51741.0,STARLINK-3520,PAYLOAD,2023-05-23 11:38:33,15.08834259,0.0001044,53.2158,223.4943,96.5224,263.5887,-1.7017e-05,-5.59e-06,0.0,0 STARLINK-3520,1 51741U 22016AD  23143.48510650 -.00000559  00000-0 -17017-4 0  9992,2 51741  53.2158 223.4943 0001044  96.5224 263.5887 15.08834259 70504,6917.898,95.438,540.485,539.041,0.0
51741.0,STARLINK-3520,PAYLOAD,2023-05-24 08:18:32,15.08887991,0.0001361,53.216,219.628,72.2776,287.8364,-0.00054796,-9.01e-05,0.0,0 STARLINK-3520,1 51741U 22016AD  23144.34620787 -.00009010  00000-0 -54796-3 0  9996,2 51741  53.2160 219.6280 0001361  72.2776 287.8364 15.08887991 70637,6917.734,95.435,540.54,538.657,0.0
51741.0,STARLINK-3520,PAYLOAD,2023-05-25 14:30:53,15.08840925,9.45e-05,53.2157,213.9773,92.5813,267.5288,7.1992e-05,8.58e-06,0.0,0 STARLINK-3520,1 51741U 22016AD  23145.60478184  .00000858  00000-0  71992-4 0  9995,2 51741  53.2157 213.9773 0000945  92.5813 267.5288 15.08840925 70828,6917.878,95.437,540.396,539.089,0.0
51741.0,STARLINK-3520,PAYLOAD,2023-05-26 11:10:54,15.08841426,0.0001151,53.2164,210.1129,90.6951,269.4173,-1.4125e-05,-5.13e-06,0.0,0 STARLINK-3520,1 51741U 22016AD  23146.46590386 -.00000513  00000-0 -14125-4 0  9994,2 51741  53.2164 210.1129 0001151  90.6951 269.4173 15.08841426 69843,6917.876,95.437,540.537,538.945,0.0
51741.0,STARLINK-3520,PAYLOAD,2023-05-27 04:40:08,15.08836965,0.0001184,53.2162,206.8421,83.8633,276.2494,2.8874e-05,1.72e-06,0.0,0 STARLINK-3520,1 51741U 22016AD  23147.19454493  .00000172  00000-0  28874-4 0  9998,2 51741  53.2162 206.8421 0001184  83.8633 276.2494 15.08836965 71066,6917.89,95.438,540.574,538.936,0.0
51741.0,STARLINK-3520,PAYLOAD,2023-05-27 20:34:00,15.08838748,0.0001054,53.2164,203.8696,103.5834,256.5275,-1.6567e-05,-5.51e-06,0.0,0 STARLINK-3520,1 51741U 22016AD  23147.85694522 -.00000551  00000-0 -16567-4 0  9999,2 51741  53.2164 203.8696 0001054 103.5834 256.5275 15.08838748 70055,6917.884,95.438,540.478,539.02,0.0
51741.0,STARLINK-3520,PAYLOAD,2023-05-27 23:44:46,15.08815107,0.0001043,53.2159,203.2738,104.558,255.5528,0.00029589,4.421e-05,0.0,0 STARLINK-3520,1 51741U 22016AD  23147.98943135  .00004421  00000-0  29589-3 0  9995,2 51741  53.2159 203.2738 0001043 104.5580 255.5528 15.08815107 71186,6917.956,95.439,540.543,539.1,0.0
51741.0,STARLINK-3520,PAYLOAD,2023-05-28 04:30:56,15.08832509,0.0001098,53.2158,202.3814,93.9698,266.142,2.6987e-05,1.42e-06,0.0,0 STARLINK-3520,1 51741U 22016AD  23148.18814896  .00000142  00000-0  26987-4 0  9995,2 51741  53.2158 202.3814 0001098  93.9698 266.1420 15.08832509 70106,6917.903,95.438,540.528,539.009,0.0
51741.0,STARLINK-3520,PAYLOAD,2023-05-28 10:52:28,15.08835093,0.0001111,53.216,201.1924,96.8171,263.2948,2.8575e-05,1.67e-06,0.0,0 STARLINK-3520,1 51741U 22016AD  23148.45310806  .00000167  00000-0  28575-4 0  9999,2 51741  53.2160 201.1924 0001111  96.8171 263.2948 15.08835093 71253,6917.895,95.438,540.529,538.992,0.0
51741.0,STARLINK-3520,PAYLOAD,2023-05-28 20:24:47,15.08836694,0.0001085,53.2157,199.4072,89.1062,271.0055,2.8865e-05,1.72e-06,0.0,0 STARLINK-3520,1 51741U 22016AD  23148.85054785  .00000172  00000-0  28865-4 0  9992,2 51741  53.2157 199.4072 0001085  89.1062 271.0055 15.08836694 70204,6917.89,95.438,540.506,539.005,0.0
51741.0,STARLINK-3520,PAYLOAD,2023-05-29 10:43:15,15.08840226,0.0001079,53.2157,196.7307,88.1966,271.915,4.3371e-05,4.03e-06,0.0,0 STARLINK-3520,1 51741U 22016AD  23149.44670573  .00000403  00000-0  43371-4 0  9993,2 51741  53.2157 196.7307 0001079  88.1966 271.9150 15.08840226 70290,6917.88,95.438,540.491,538.998,0.0
51741.0,STARLINK-3520,PAYLOAD,2023-05-29 20:15:34,15.08836445,0.0001111,53.2154,194.9456,79.7824,280.3294,5.3718e-06,-2.02e-06,0.0,0 STARLINK-3520,1 51741U 22016AD  23149.84414984 -.00000202  00000-0  53718-5 0  9994,2 51741  53.2154 194.9456 0001111  79.7824 280.3294 15.08836445 70356,6917.891,95.438,540.525,538.988,0.0
51741.0,STARLINK-3520,PAYLOAD,2023-05-30 10:34:03,15.08833446,0.0001088,53.2152,192.2688,80.0034,280.1081,2.4298e-05,9.9e-07,0.0,0 STARLINK-3520,1 51741U 22016AD  23150.44031307  .00000099  00000-0  24298-4 0  9999,2 51741  53.2152 192.2688 0001088  80.0034 280.1081 15.08833446 70443,6917.9,95.438,540.518,539.013,0.0
51741.0,STARLINK-3520,PAYLOAD,2023-05-30 20:06:21,15.08838798,0.000114,53.2158,190.4848,79.3264,280.7857,3.7001e-05,3.01e-06,0.0,0 STARLINK-3520,1 51741U 22016AD  23150.83775008  .00000301  00000-0  37001-4 0  9997,2 51741  53.2158 190.4848 0001140  79.3264 280.7857 15.08838798 70501,6917.884,95.438,540.538,538.96,0.0
51741.0,STARLINK-3520,PAYLOAD,2023-05-31 02:27:54,15.08840857,0.0001126,53.2157,189.2949,79.5248,280.5871,4.4814e-05,4.25e-06,0.0,0 STARLINK-3520,1 51741U 22016AD  23151.10270841  .00000425  00000-0  44814-4 0  9990,2 51741  53.2157 189.2949 0001126  79.5248 280.5871 15.08840857 71656,6917.878,95.438,540.522,538.964,0.0
51741.0,STARLINK-3520,PAYLOAD,2023-05-31 08:49:26,15.08844482,0.0001142,53.2156,188.1062,77.3365,282.7755,7.1631e-05,8.52e-06,0.0,0 STARLINK-3520,1 51741U 22016AD  23151.36766497  .00000852  00000-0  71631-4 0  9996,2 51741  53.2156 188.1062 0001142  77.3365 282.7755 15.08844482 70587,6917.867,95.437,540.522,538.942,0.0
51741.0,STARLINK-3520,PAYLOAD,2023-05-31 19:57:07,15.08849988,0.0001179,53.2163,186.0248,77.1355,282.9768,0.00012845,1.758e-05,0.0,0 STARLINK-3520,1 51741U 22016AD  23151.83133764  .00001758  00000-0  12845-3 0  9990,2 51741  53.2163 186.0248 0001179  77.1355 282.9768 15.08849988 70655,6917.85,95.437,540.53,538.899,0.0
51741.0,STARLINK-3520,PAYLOAD,2023-06-01 02:18:39,15.08850932,0.0001082,53.2158,184.835,77.2335,282.8778,0.00017047,2.427e-05,0.0,0 STARLINK-3520,1 51741U 22016AD  23152.09629366  .00002427  00000-0  17047-3 0  9990,2 51741  53.2158 184.8350 0001082  77.2335 282.8778 15.08850932 71800,6917.847,95.437,540.46,538.963,0.0
51741.0,STARLINK-3520,PAYLOAD,2023-06-01 07:04:48,15.0885653,0.0001142,53.2157,183.9435,75.592,284.5199,0.00020766,3.02e-05,0.0,0 STARLINK-3520,1 51741U 22016AD  23152.29500795  .00003020  00000-0  20766-3 0  9998,2 51741  53.2157 183.9435 0001142  75.5920 284.5199 15.08856530 70727,6917.83,95.437,540.485,538.905,0.0
51741.0,STARLINK-3520,PAYLOAD,2023-06-02 02:09:27,15.0883847,9.96e-05,53.216,180.3752,73.3349,286.7753,-4.5144e-05,-1.006e-05,0.0,0 STARLINK-3520,1 51741U 22016AD  23153.08990309 -.00001006  00000-0 -45144-4 0  9992,2 51741  53.2160 180.3752 0000996  73.3349 286.7753 15.08838470 71950,6917.885,95.438,540.439,539.061,0.0
51741.0,STARLINK-3520,PAYLOAD,2023-06-02 08:31:00,15.08836999,0.0001047,53.2158,179.1848,91.147,268.9642,-8.0223e-05,-1.564e-05,0.0,0 STARLINK-3520,1 51741U 22016AD  23153.35486496 -.00001564  00000-0 -80223-4 0  9995,2 51741  53.2158 179.1848 0001047  91.1470 268.9642 15.08836999 70884,6917.89,95.438,540.479,539.03,0.0
